BEIDOU 3 (C01)          
1 36287U 10001A   21018.41142288 -.00000282  00000-0  00000-0 0  9993
2 36287   1.6605  39.7048 0003262 110.4443 256.3318  1.00268261 40364
BEIDOU 5 (C06)          
1 36828U 10036A   21018.56080493 -.00000058  00000-0  00000-0 0  9998
2 36828  54.1711 180.9767 0101301 233.2370  22.1026  1.00248579 38406
BEIDOU 6 (C04)          
1 37210U 10057A   21018.55522729 -.00000111  00000-0  00000-0 0  9999
2 37210   0.8779  50.7247 0005717 190.1611 237.2055  1.00272199 37476
BEIDOU 7 (C07)          
1 37256U 10068A   21018.47502946 -.00000214  00000-0  00000-0 0  9995
2 37256  51.1179 295.7830 0082571 217.0745 251.3420  1.00305072 36994
BEIDOU 8 (C08)          
1 37384U 11013A   21017.50605244 -.00000191  00000-0  00000+0 0  9999
2 37384  59.5727  59.4250 0055700 205.5239 151.5615  1.00296177 35847
BEIDOU 9 (C09)          
1 37763U 11038A   21016.27496831 -.00000027  00000-0  00000+0 0  9998
2 37763  54.4577 183.4143 0073272 223.0044 259.7853  1.00251470 34815
BEIDOU 10 (C10)         
1 37948U 11073A   21018.11856944 -.00000153  00000-0  00000-0 0  9993
2 37948  51.2227 295.3994 0070295 216.0213 103.9483  1.00286982 33584
BEIDOU 11 (C05)         
1 38091U 12008A   21018.41019957  .00000056  00000-0  00000-0 0  9991
2 38091   1.9366  71.1855 0003772 245.0493   8.2072  1.00274848 32661
BEIDOU 12 (C11)         
1 38250U 12018A   21018.28706419 -.00000091  00000-0  00000-0 0  9990
2 38250  56.7551  10.5708 0024585 248.9382 165.1630  1.86234273 59495
BEIDOU 13 (C12)         
1 38251U 12018B   21018.18747495 -.00000091  00000-0  00000-0 0  9999
2 38251  56.6794   9.9329 0015712 253.7828 137.9943  1.86233827 59494
BEIDOU 15 (C14)         
1 38775U 12050B   21018.35661667 -.00000003  00000-0  00000-0 0  9994
2 38775  55.1430 129.0452 0012928 319.6975  22.8407  1.86232262 56865
BEIDOU 16 (C02)         
1 38953U 12059A   21018.48705455 -.00000175  00000-0  00000-0 0  9999
2 38953   1.6123  84.8431 0009023 260.5315  32.0523  1.00272466 30238
BEIDOU 17 (C31)         
1 40549U 15019A   21017.96369935 -.00000168  00000-0  00000-0 0  9995
2 40549  52.7341 318.7295 0036903 189.7868  48.3051  1.00298135 21260
BEIDOU 18 (C57)         
1 40748U 15037A   21018.42605899 -.00000093  00000-0  00000-0 0  9997
2 40748  55.9445   9.1015 0004375 322.8119 139.0077  1.86233404 37321
BEIDOU 19 (C58)         
1 40749U 15037B   21018.05399110 -.00000094  00000-0  00000+0 0  9993
2 40749  55.9478   9.1024 0007179 299.1504  49.9634  1.86232147 37306
BEIDOU 20 (C18)         
1 40938U 15053A   21017.71716133 -.00000129  00000-0  00000-0 0  9991
2 40938  52.2946 281.7883 0046046 191.1627 359.0247  1.00270411 19543
BEIDOU IGSO-6 (C13)     
1 41434U 16021A   21017.47981909 -.00000137  00000-0  00000-0 0  9996
2 41434  57.3418  58.2391 0043015 210.5831 113.4883  1.00258466 17656
BEIDOU-2 G7 (C03)       
1 41586U 16037A   21018.42049344 -.00000355  00000-0  00000-0 0  9997
2 41586   1.9398  69.3648 0008708 359.0038 311.5746  1.00271060 16970
BEIDOU-3 M1 (C19)       
1 43001U 17069A   21018.12558481 -.00000002  00000-0  00000-0 0  9990
2 43001  55.2975 128.9852 0008158 284.3271  59.7391  1.86231633 21793
BEIDOU-3 M2 (C20)       
1 43002U 17069B   21017.95421409 -.00000002  00000-0  00000-0 0  9990
2 43002  55.2971 129.0259 0006764 312.5930 320.2174  1.86231415 21782
BEIDOU-3 M3 (C27)       
1 43107U 18003A   21018.02460793 -.00000095  00000-0  00000-0 0  9995
2 43107  55.3845  10.2629 0003739  24.3820 101.4989  1.86232535 20557
BEIDOU-3 M4 (C28)       
1 43108U 18003B   21018.09885773 -.00000095  00000-0  00000-0 0  9992
2 43108  55.3772  10.2513 0004508 253.5301 327.3140  1.86232547 20555
BEIDOU-3 M5 (C21)       
1 43207U 18018A   21018.21685652 -.00000002  00000-0  00000-0 0  9994
2 43207  55.2565 129.1132 0004883 334.5912  25.3768  1.86231598 19942
BEIDOU-3 M6 (C22)       
1 43208U 18018B   21018.28359706 -.00000002  00000-0  00000-0 0  9990
2 43208  55.2560 129.1159 0006946 295.6629  64.2576  1.86231742 19941
BEIDOU-3 M7 (C29)       
1 43245U 18029A   21018.13882745 -.00000095  00000-0  00000-0 0  9993
2 43245  55.3216   8.0585 0001673 282.7648 189.8169  1.86232670 19098
BEIDOU-3 M8 (C30)       
1 43246U 18029B   21018.07524654 -.00000095  00000-0  10000-3 0  9993
2 43246  55.3197   8.0931 0004919 329.1073 146.9142  1.86232869 19080
BEIDOU IGSO-7 (C16)     
1 43539U 18057A   21017.84729264 -.00000091  00000-0  00000-0 0  9999
2 43539  55.0513 180.3089 0031055 211.9479 144.2375  1.00259372  9331
BEIDOU-3 M9 (C23)       
1 43581U 18062A   21018.03133193  .00000011  00000-0  00000-0 0  9995
2 43581  54.4643 249.7624 0003235 308.5124 347.7947  1.86231792 16826
BEIDOU-3 M10 (C24)      
1 43582U 18062B   21018.14522091  .00000011  00000-0  00000-0 0  9997
2 43582  54.4648 249.7488 0006510   4.8695  99.0072  1.86232270 16837
BEIDOU-3 M11 (C25)      
1 43602U 18067A   21018.18915024  .00000014  00000-0  00000-0 0  9994
2 43602  54.5370 248.3179 0007509   1.3771 174.4261  1.86231508 16326
BEIDOU-3 M12 (C26)      
1 43603U 18067B   21018.24489309  .00000014  00000-0  00000-0 0  9994
2 43603  54.5352 248.2830 0004878 354.8960 128.7734  1.86231444 16340
BEIDOU-3 M13 (C32)      
1 43622U 18072A   21017.88331579 -.00000003  00000-0  00000-0 0  9994
2 43622  55.2208 128.6979 0004924 278.5053 353.1073  1.86231502 15840
BEIDOU-3 M14 (C33)      
1 43623U 18072B   21017.88243837 -.00000003  00000-0  00000-0 0  9994
2 43623  55.2218 128.6892 0003347 313.1365  48.1186  1.86231393 15851
BEIDOU-3 M15 (C34)      
1 43647U 18078A   21018.14829818 -.00000095  00000-0  10000-3 0  9990
2 43647  55.2146   8.2608 0007067 338.3748  96.3018  1.86232780 15368
BEIDOU-3 M16 (C35)      
1 43648U 18078B   21017.37063296 -.00000098  00000-0  10000-3 0  9998
2 43648  55.2109   8.2951 0004992 344.7120 197.2894  1.86232481 15369
BEIDOU-3 G1 (C59)       
1 43683U 18085A   21018.49822076 -.00000276  00000-0  00000-0 0  9992
2 43683   1.3200 242.2417 0003006  13.9816 181.2666  1.00274744  8255
BEIDOU-3 M17 (C36)      
1 43706U 18093A   21018.06457472  .00000011  00000-0  00000-0 0  9990
2 43706  54.5445 249.6088 0008571 280.1328 263.4254  1.86231843 14727
BEIDOU-3 M18 (C37)      
1 43707U 18093B   21018.09766512  .00000012  00000-0  00000-0 0  9993
2 43707  54.5456 249.5996 0008159 307.6638 348.7927  1.86232094 14721
BEIDOU-3 IGSO-1 (C38)   
1 44204U 19023A   21018.36125598 -.00000212  00000-0  00000-0 0  9996
2 44204  55.8016  58.5551 0017816 201.1419 102.2656  1.00284597  6544
BEIDOU-2 G8             
1 44231U 19027A   21018.35554334 -.00000246  00000-0  00000-0 0  9990
2 44231   0.5099 310.0867 0007808 271.3459 169.0345  1.00275478  6275
BEIDOU-3 IGSO-2 (C39)   
1 44337U 19035A   21018.42149457 -.00000080  00000-0  00000-0 0  9996
2 44337  55.0915 176.3509 0016499 184.0908  16.9513  1.00276314  5888
BEIDOU-3 M23 (C45)      
1 44542U 19061A   21018.16153509  .00000012  00000-0  10000-3 0  9995
2 44542  54.7690 249.6459 0009084 338.2156 314.6059  1.86231521  8982
BEIDOU-3 M24 (C46)      
1 44543U 19061B   21018.15230149  .00000012  00000-0  10000-3 0  9991
2 44543  54.7673 249.6174 0006022 336.6842 220.5913  1.86231739  8997
BEIDOU-3 IGSO-3         
1 44709U 19073A   21018.46616620 -.00000178  00000-0  00000-0 0  9994
2 44709  58.0757 301.7038 0019494 195.8869 256.1901  1.00269075  4641
BEIDOU-3 M21            
1 44793U 19078A   21018.15314079 -.00000096  00000-0  10000-3 0  9994
2 44793  55.0637   8.3443 0006887 345.1688  47.3829  1.86232171  7855
BEIDOU-3 M22            
1 44794U 19078B   21016.89184975 -.00000099  00000-0  10000-3 0  9997
2 44794  55.0379   8.3903 0005071 336.9645 200.6386  1.86232643  7828
BEIDOU-3 M19            
1 44864U 19090A   21018.36185787 -.00000003  00000-0  00000-0 0  9996
2 44864  55.1552 128.9216 0014704 260.4965  17.3173  1.86231739  7434
BEIDOU-3 M20            
1 44865U 19090B   21017.77220277 -.00000002  00000-0  00000-0 0  9994
2 44865  55.1574 128.9720 0013632 276.8512  55.5493  1.86231675  7402
BEIDOU-3 G2             
1 45344U 20017A   21018.35743976 -.00000139  00000-0  00000-0 0  9990
2 45344   2.6336 332.7561 0000971   1.3391 352.5832  1.00272507  3446
BEIDOU-3 G3             
1 45807U 20040A   21018.49228872 -.00000351  00000-0  00000-0 0  9994
2 45807   2.6283 298.3936 0010159  14.1131  93.3272  1.00268186  2273
